{
  "type": "FeatureCollection",
  "features": [
    {
      "type": "Feature",
      "properties": {
        "norad_id": 66725,
        "name": "FLOCK 4H-22",
        "group": "last-30-days",
        "lat": 70.97830920422311,
        "lon": -86.59240587784106,
        "alt_km": 507.47986982356997,
        "timestamp": "2025-12-25T14:48:23.569550+00:00",
        "meta_object_name": "FLOCK 4H-22",
        "meta_object_id": "2025-276BM",
        "meta_epoch": "2025-12-25T04:50:20.936544",
        "meta_mean_motion": 15.1752068,
        "meta_eccentricity": 0.00014816,
        "meta_inclination": 97.4372,
        "meta_ra_of_asc_node": 70.7338,
        "meta_arg_of_pericenter": 276.7334,
        "meta_mean_anomaly": 83.3732,
        "meta_ephemeris_type": 0,
        "meta_classification_type": "U",
        "meta_norad_cat_id": 66725,
        "meta_element_set_no": 999,
        "meta_rev_at_epoch": 401,
        "meta_bstar": 0.00033404846,
        "meta_mean_motion_dot": 6.634e-05,
        "meta_mean_motion_ddot": 0,
        "tle_line1": "1 66725U 25276BM  25359.20163121  .00006634  00000+0  33405-3 0  9994",
        "tle_line2": "2 66725  97.4372  70.7338 0001481 276.7334  83.3732 15.17520680  4010"
      },
      "geometry": {
        "type": "Point",
        "coordinates": [
          -86.59240587784106,
          70.97830920422311
        ]
      }
    },
    {
      "type": "Feature",
      "properties": {
        "norad_id": 66726,
        "name": "FLOCK 4H-23",
        "group": "last-30-days",
        "lat": 81.18717971586321,
        "lon": 13.668181596751264,
        "alt_km": 508.6481862684859,
        "timestamp": "2025-12-25T14:48:23.569560+00:00",
        "meta_object_name": "FLOCK 4H-23",
        "meta_object_id": "2025-276BN",
        "meta_epoch": "2025-12-25T03:21:07.958016",
        "meta_mean_motion": 15.17251897,
        "meta_eccentricity": 0.00034664,
        "meta_inclination": 97.4437,
        "meta_ra_of_asc_node": 70.6902,
        "meta_arg_of_pericenter": 231.7792,
        "meta_mean_anomaly": 128.313,
        "meta_ephemeris_type": 0,
        "meta_classification_type": "U",
        "meta_norad_cat_id": 66726,
        "meta_element_set_no": 999,
        "meta_rev_at_epoch": 400,
        "meta_bstar": 0.00059486137,
        "meta_mean_motion_dot": 0.00011784,
        "meta_mean_motion_ddot": 0,
        "tle_line1": "1 66726U 25276BN  25359.13967544  .00011784  00000+0  59486-3 0  9997",
        "tle_line2": "2 66726  97.4437  70.6902 0003466 231.7792 128.3130 15.17251897  4005"
      },
      "geometry": {
        "type": "Point",
        "coordinates": [
          13.668181596751264,
          81.18717971586321
        ]
      }
    },
    {
      "type": "Feature",
      "properties": {
        "norad_id": 66727,
        "name": "FLOCK 4H-24",
        "group": "last-30-days",
        "lat": 80.7604675093124,
        "lon": -55.34751551337187,
        "alt_km": 508.18629671998497,
        "timestamp": "2025-12-25T14:48:23.569570+00:00",
        "meta_object_name": "FLOCK 4H-24",
        "meta_object_id": "2025-276BP",
        "meta_epoch": "2025-12-25T04:53:27.328128",
        "meta_mean_motion": 15.17354427,
        "meta_eccentricity": 0.00028645,
        "meta_inclination": 97.4437,
        "meta_ra_of_asc_node": 70.7594,
        "meta_arg_of_pericenter": 250.4974,
        "meta_mean_anomaly": 109.5951,
        "meta_ephemeris_type": 0,
        "meta_classification_type": "U",
        "meta_norad_cat_id": 66727,
        "meta_element_set_no": 999,
        "meta_rev_at_epoch": 401,
        "meta_bstar": 0.00031402805,
        "meta_mean_motion_dot": 6.203e-05,
        "meta_mean_motion_ddot": 0,
        "tle_line1": "1 66727U 25276BP  25359.20378852  .00006203  00000+0  31403-3 0  9993",
        "tle_line2": "2 66727  97.4437  70.7594 0002864 250.4974 109.5951 15.17354427  4011"
      },
      "geometry": {
        "type": "Point",
        "coordinates": [
          -55.34751551337187,
          80.7604675093124
        ]
      }
    },
    {
      "type": "Feature",
      "properties": {
        "norad_id": 66728,
        "name": "FLOCK 4H-25",
        "group": "last-30-days",
        "lat": -1.3378959568944016,
        "lon": -108.99130243923427,
        "alt_km": 513.9311513967841,
        "timestamp": "2025-12-25T14:48:23.569579+00:00",
        "meta_object_name": "FLOCK 4H-25",
        "meta_object_id": "2025-276BQ",
        "meta_epoch": "2025-12-25T06:06:07.447968",
        "meta_mean_motion": 15.18242017,
        "meta_eccentricity": 0.00017673,
        "meta_inclination": 97.4393,
        "meta_ra_of_asc_node": 70.8269,
        "meta_arg_of_pericenter": 115.099,
        "meta_mean_anomaly": 245.0428,
        "meta_ephemeris_type": 0,
        "meta_classification_type": "U",
        "meta_norad_cat_id": 66728,
        "meta_element_set_no": 999,
        "meta_rev_at_epoch": 330,
        "meta_bstar": 0.00030581436,
        "meta_mean_motion_dot": 6.195e-05,
        "meta_mean_motion_ddot": 0,
        "tle_line1": "1 66728U 25276BQ  25359.25425287  .00006195  00000+0  30581-3 0  9990",
        "tle_line2": "2 66728  97.4393  70.8269 0001767 115.0990 245.0428 15.18242017  3306"
      },
      "geometry": {
        "type": "Point",
        "coordinates": [
          -108.99130243923427,
          -1.3378959568944016
        ]
      }
    },
    {
      "type": "Feature",
      "properties": {
        "norad_id": 66729,
        "name": "FLOCK 4H-26",
        "group": "last-30-days",
        "lat": 74.5432108053986,
        "lon": 42.9406073223461,
        "alt_km": 509.75555084595453,
        "timestamp": "2025-12-25T14:48:23.569589+00:00",
        "meta_object_name": "FLOCK 4H-26",
        "meta_object_id": "2025-276BR",
        "meta_epoch": "2025-12-25T04:58:24.570048",
        "meta_mean_motion": 15.17183301,
        "meta_eccentricity": 0.00036772,
        "meta_inclination": 97.4388,
        "meta_ra_of_asc_node": 70.7362,
        "meta_arg_of_pericenter": 249.9083,
        "meta_mean_anomaly": 110.1755,
        "meta_ephemeris_type": 0,
        "meta_classification_type": "U",
        "meta_norad_cat_id": 66729,
        "meta_element_set_no": 999,
        "meta_rev_at_epoch": 401,
        "meta_bstar": 0.00052153608,
        "meta_mean_motion_dot": 0.00010301,
        "meta_mean_motion_ddot": 0,
        "tle_line1": "1 66729U 25276BR  25359.20722882  .00010301  00000+0  52154-3 0  9991",
        "tle_line2": "2 66729  97.4388  70.7362 0003677 249.9083 110.1755 15.17183301  4019"
      },
      "geometry": {
        "type": "Point",
        "coordinates": [
          42.9406073223461,
          74.5432108053986
        ]
      }
    },
    {
      "type": "Feature",
      "properties": {
        "norad_id": 66730,
        "name": "FLOCK 4H-27",
        "group": "last-30-days",
        "lat": 11.503238978561685,
        "lon": -107.30749620889775,
        "alt_km": 512.2974063981464,
        "timestamp": "2025-12-25T14:48:23.569599+00:00",
        "meta_object_name": "FLOCK 4H-27",
        "meta_object_id": "2025-276BS",
        "meta_epoch": "2025-12-25T06:09:29.491776",
        "meta_mean_motion": 15.1811644,
        "meta_eccentricity": 0.00014109,
        "meta_inclination": 97.4367,
        "meta_ra_of_asc_node": 70.8151,
        "meta_arg_of_pericenter": 124.0054,
        "meta_mean_anomaly": 236.1314,
        "meta_ephemeris_type": 0,
        "meta_classification_type": "U",
        "meta_norad_cat_id": 66730,
        "meta_element_set_no": 999,
        "meta_rev_at_epoch": 402,
        "meta_bstar": 0.00050954844,
        "meta_mean_motion_dot": 0.00010335,
        "meta_mean_motion_ddot": 0,
        "tle_line1": "1 66730U 25276BS  25359.25659134  .00010335  00000+0  50955-3 0  9991",
        "tle_line2": "2 66730  97.4367  70.8151 0001410 124.0054 236.1314 15.18116440  4021"
      },
      "geometry": {
        "type": "Point",
        "coordinates": [
          -107.30749620889775,
          11.503238978561685
        ]
      }
    },
    {
      "type": "Feature",
      "properties": {
        "norad_id": 66731,
        "name": "FLOCK 4H-28",
        "group": "last-30-days",
        "lat": 75.9145109201174,
        "lon": 39.759302360296694,
        "alt_km": 509.37649647922626,
        "timestamp": "2025-12-25T14:48:23.569608+00:00",
        "meta_object_name": "FLOCK 4H-28",
        "meta_object_id": "2025-276BT",
        "meta_epoch": "2025-12-25T03:23:00.743712",
        "meta_mean_motion": 15.17168941,
        "meta_eccentricity": 0.00031843,
        "meta_inclination": 97.4377,
        "meta_ra_of_asc_node": 70.6678,
        "meta_arg_of_pericenter": 251.5024,
        "meta_mean_anomaly": 108.5864,
        "meta_ephemeris_type": 0,
        "meta_classification_type": "U",
        "meta_norad_cat_id": 66731,
        "meta_element_set_no": 999,
        "meta_rev_at_epoch": 400,
        "meta_bstar": 0.00047532577,
        "meta_mean_motion_dot": 9.377e-05,
        "meta_mean_motion_ddot": 0,
        "tle_line1": "1 66731U 25276BT  25359.14098083  .00009377  00000+0  47533-3 0  9992",
        "tle_line2": "2 66731  97.4377  70.6678 0003184 251.5024 108.5864 15.17168941  4000"
      },
      "geometry": {
        "type": "Point",
        "coordinates": [
          39.759302360296694,
          75.9145109201174
        ]
      }
    }
  ]
}